HXMT (HUIYAN)           
1 42758U 17034A   26074.24075693  .00007618  00000+0  37875-3 0  9990
2 42758  43.0161 345.8108 0033261 269.6742  90.0295 15.17552966483381
SAOCOM 1A               
1 43641U 18076A   26074.29636671  .00000750  00000+0  10082-3 0  9994
2 43641  97.8900 262.3893 0001477  85.4812 274.6570 14.82148392402192
H-2A R/B                
1 43682U 18084L   26074.18556098  .00022427  00000+0  52891-3 0  9999
2 43682  98.8731 292.7490 0024980   6.5381 353.6182 15.41607276406625
SAOCOM 1B               
1 46265U 20059A   26073.04490030  .00000161  00000+0  26755-4 0  9993
2 46265  97.8899 260.2532 0001383  84.3427 275.7944 14.82151938299390
CSS (TIANHE)            
1 48274U 21035A   26073.00269975  .00029757  00000+0  34787-3 0  9993
2 48274  41.4663 181.9138 0006689 299.3968  60.6202 15.60904690278280
COSMOS 2550             
1 48865U 21056A   26074.25558969 -.00000200  00000+0 -25088-6 0  9995
2 48865  67.1441  24.0967 0008313 268.6753  91.3449 15.33842811264318
CZ-2C R/B               
1 52794U 22058K   26074.29782198  .00037592  00000+0  53949-3 0  9997
2 52794  50.1884 289.4325 0041979 224.6961 135.0624 15.54669846211007
CZ-2C R/B               
1 54039U 22132E   26074.00886157  .00050223  00000+0  56047-3 0  9991
2 54039  97.2957  77.4891 0020088  74.8670 285.4809 15.62393268191202
GSLV R/B                
1 54149U 22138AN  26074.26975570  .00003444  00000+0  29672-3 0  9992
2 54149  87.3881 164.4950 0023576 127.9833 232.3533 14.96819607184763
XRISM                   
1 57800U 23137A   26074.18761664  .00006235  00000+0  35278-3 0  9997
2 57800  31.0008 248.1007 0007935  94.0094 266.1451 15.11567104138622
ACS3                    
1 59588U 24077B   26074.25774333  .00025857  00000+0  20625-1 0  9990
2 59588  97.2037  14.1178 0064607  63.2080 297.5673 13.89881559 94974
SZ-21 MODULE            
1 66515U 25246C   26073.59336335  .00048778  00000+0  41125-3 0  9996
2 66515  41.4735 173.1648 0000910 309.7124  50.3637 15.68965402 18846
