[{"OBJECT_NAME":"HXMT (HUIYAN)","OBJECT_ID":"2017-034A","EPOCH":"2026-03-15T05:46:41.398752","MEAN_MOTION":15.17552966,"ECCENTRICITY":0.00332612,"INCLINATION":43.0161,"RA_OF_ASC_NODE":345.8108,"ARG_OF_PERICENTER":269.6742,"MEAN_ANOMALY":90.0295,"EPHEMERIS_TYPE":0,"CLASSIFICATION_TYPE":"U","NORAD_CAT_ID":42758,"ELEMENT_SET_NO":999,"REV_AT_EPOCH":48338,"BSTAR":0.0003787507,"MEAN_MOTION_DOT":7.618e-5,"MEAN_MOTION_DDOT":0},{"OBJECT_NAME":"SAOCOM 1A","OBJECT_ID":"2018-076A","EPOCH":"2026-03-15T07:06:46.083744","MEAN_MOTION":14.82148392,"ECCENTRICITY":0.0001477,"INCLINATION":97.89,"RA_OF_ASC_NODE":262.3893,"ARG_OF_PERICENTER":85.4812,"MEAN_ANOMALY":274.657,"EPHEMERIS_TYPE":0,"CLASSIFICATION_TYPE":"U","NORAD_CAT_ID":43641,"ELEMENT_SET_NO":999,"REV_AT_EPOCH":40219,"BSTAR":0.00010081742,"MEAN_MOTION_DOT":7.5e-6,"MEAN_MOTION_DDOT":0},{"OBJECT_NAME":"H-2A R/B","OBJECT_ID":"2018-084L","EPOCH":"2026-03-15T04:27:12.468672","MEAN_MOTION":15.41607276,"ECCENTRICITY":0.00249807,"INCLINATION":98.8731,"RA_OF_ASC_NODE":292.749,"ARG_OF_PERICENTER":6.5381,"MEAN_ANOMALY":353.6182,"EPHEMERIS_TYPE":0,"CLASSIFICATION_TYPE":"U","NORAD_CAT_ID":43682,"ELEMENT_SET_NO":999,"REV_AT_EPOCH":40662,"BSTAR":0.0005289061,"MEAN_MOTION_DOT":0.00022427,"MEAN_MOTION_DDOT":0},{"OBJECT_NAME":"SAOCOM 1B","OBJECT_ID":"2020-059A","EPOCH":"2026-03-14T01:04:39.385920","MEAN_MOTION":14.82151938,"ECCENTRICITY":0.00013837,"INCLINATION":97.8899,"RA_OF_ASC_NODE":260.2532,"ARG_OF_PERICENTER":84.3427,"MEAN_ANOMALY":275.7944,"EPHEMERIS_TYPE":0,"CLASSIFICATION_TYPE":"U","NORAD_CAT_ID":46265,"ELEMENT_SET_NO":999,"REV_AT_EPOCH":29939,"BSTAR":2.6755151e-5,"MEAN_MOTION_DOT":1.61e-6,"MEAN_MOTION_DDOT":0},{"OBJECT_NAME":"CSS (TIANHE)","OBJECT_ID":"2021-035A","EPOCH":"2026-03-14T00:03:53.258400","MEAN_MOTION":15.6090469,"ECCENTRICITY":0.0006689,"INCLINATION":41.4663,"RA_OF_ASC_NODE":181.9138,"ARG_OF_PERICENTER":299.3968,"MEAN_ANOMALY":60.6202,"EPHEMERIS_TYPE":0,"CLASSIFICATION_TYPE":"U","NORAD_CAT_ID":48274,"ELEMENT_SET_NO":999,"REV_AT_EPOCH":27828,"BSTAR":0.00034787289,"MEAN_MOTION_DOT":0.00029757,"MEAN_MOTION_DDOT":0},{"OBJECT_NAME":"COSMOS 2550","OBJECT_ID":"2021-056A","EPOCH":"2026-03-15T06:08:02.949216","MEAN_MOTION":15.33842811,"ECCENTRICITY":0.00083138,"INCLINATION":67.1441,"RA_OF_ASC_NODE":24.0967,"ARG_OF_PERICENTER":268.6753,"MEAN_ANOMALY":91.3449,"EPHEMERIS_TYPE":0,"CLASSIFICATION_TYPE":"U","NORAD_CAT_ID":48865,"ELEMENT_SET_NO":999,"REV_AT_EPOCH":26431,"BSTAR":-2.50877e-7,"MEAN_MOTION_DOT":-2.0e-6,"MEAN_MOTION_DDOT":0},{"OBJECT_NAME":"CZ-2C R/B","OBJECT_ID":"2022-058K","EPOCH":"2026-03-15T07:08:51.819072","MEAN_MOTION":15.54669846,"ECCENTRICITY":0.00419793,"INCLINATION":50.1884,"RA_OF_ASC_NODE":289.4325,"ARG_OF_PERICENTER":224.6961,"MEAN_ANOMALY":135.0624,"EPHEMERIS_TYPE":0,"CLASSIFICATION_TYPE":"U","NORAD_CAT_ID":52794,"ELEMENT_SET_NO":999,"REV_AT_EPOCH":21100,"BSTAR":0.00053948898,"MEAN_MOTION_DOT":0.00037592,"MEAN_MOTION_DDOT":0},{"OBJECT_NAME":"CZ-2C R/B","OBJECT_ID":"2022-132E","EPOCH":"2026-03-15T00:12:45.639648","MEAN_MOTION":15.62393268,"ECCENTRICITY":0.00200886,"INCLINATION":97.2957,"RA_OF_ASC_NODE":77.4891,"ARG_OF_PERICENTER":74.867,"MEAN_ANOMALY":285.4809,"EPHEMERIS_TYPE":0,"CLASSIFICATION_TYPE":"U","NORAD_CAT_ID":54039,"ELEMENT_SET_NO":999,"REV_AT_EPOCH":19120,"BSTAR":0.00056046618,"MEAN_MOTION_DOT":0.00050223,"MEAN_MOTION_DDOT":0},{"OBJECT_NAME":"GSLV R/B","OBJECT_ID":"2022-138AN","EPOCH":"2026-03-15T06:28:26.892480","MEAN_MOTION":14.96819607,"ECCENTRICITY":0.00235766,"INCLINATION":87.3881,"RA_OF_ASC_NODE":164.495,"ARG_OF_PERICENTER":127.9833,"MEAN_ANOMALY":232.3533,"EPHEMERIS_TYPE":0,"CLASSIFICATION_TYPE":"U","NORAD_CAT_ID":54149,"ELEMENT_SET_NO":999,"REV_AT_EPOCH":18476,"BSTAR":0.00029672083,"MEAN_MOTION_DOT":3.444e-5,"MEAN_MOTION_DDOT":0},{"OBJECT_NAME":"XRISM","OBJECT_ID":"2023-137A","EPOCH":"2026-03-15T04:30:10.077696","MEAN_MOTION":15.11567104,"ECCENTRICITY":0.00079352,"INCLINATION":31.0008,"RA_OF_ASC_NODE":248.1007,"ARG_OF_PERICENTER":94.0094,"MEAN_ANOMALY":266.1451,"EPHEMERIS_TYPE":0,"CLASSIFICATION_TYPE":"U","NORAD_CAT_ID":57800,"ELEMENT_SET_NO":999,"REV_AT_EPOCH":13862,"BSTAR":0.00035278206,"MEAN_MOTION_DOT":6.235e-5,"MEAN_MOTION_DDOT":0},{"OBJECT_NAME":"ACS3","OBJECT_ID":"2024-077B","EPOCH":"2026-03-15T06:11:09.023712","MEAN_MOTION":13.89881559,"ECCENTRICITY":0.00646071,"INCLINATION":97.2037,"RA_OF_ASC_NODE":14.1178,"ARG_OF_PERICENTER":63.208,"MEAN_ANOMALY":297.5673,"EPHEMERIS_TYPE":0,"CLASSIFICATION_TYPE":"U","NORAD_CAT_ID":59588,"ELEMENT_SET_NO":999,"REV_AT_EPOCH":9497,"BSTAR":0.020625178,"MEAN_MOTION_DOT":0.00025857,"MEAN_MOTION_DDOT":0},{"OBJECT_NAME":"SZ-21 MODULE","OBJECT_ID":"2025-246C","EPOCH":"2026-03-14T14:14:26.593440","MEAN_MOTION":15.68965402,"ECCENTRICITY":9.103e-5,"INCLINATION":41.4735,"RA_OF_ASC_NODE":173.1648,"ARG_OF_PERICENTER":309.7124,"MEAN_ANOMALY":50.3637,"EPHEMERIS_TYPE":0,"CLASSIFICATION_TYPE":"U","NORAD_CAT_ID":66515,"ELEMENT_SET_NO":999,"REV_AT_EPOCH":1884,"BSTAR":0.00041125442,"MEAN_MOTION_DOT":0.00048778,"MEAN_MOTION_DDOT":0}]
